{
  "norad_id": 58365,
  "name": "STARLINK-30918",
  "history": [
    {
      "epoch": "2026-03-28T18:19:19.977888Z",
      "apogee_km": 486.66140374367205,
      "perigee_km": 484.4271382163424,
      "latitude_deg": -3.4863218081069873e-05,
      "longitude_deg": 141.94301906959998,
      "height_km": 485.5107789875847,
      "semi_major_axis_km": 6863.681270980007,
      "eccentricity": 0.00016276,
      "inclination_deg": 42.9992,
      "raan_deg": 242.9555,
      "arg_perigee_deg": 260.2248,
      "mean_anomaly_deg": 99.8419,
      "mean_motion_rev_day": 15.26747087
    }
  ]
}